MEAN_MOTION;ECCENTRICITY;INCLINATION;RA_OF_ASC_NODE;ARG_OF_PERICENTER;MEAN_ANOMALY;BSTAR;MEAN_MOTION_DOT;MEAN_MOTION_DDOT;TYPE
2.00550212;0.0105506;56.3799;320.0212;30.6577;150.1704;0;-2.5E-7;0;Navigation
2.00579273;0.0106472;56.3793;319.9747;30.6053;279.2851;0;-2.3E-7;0;Navigation
2.00579227;0.0106486;56.3791;319.9622;30.6022;149.9778;0;-2.3E-7;0;Navigation
2.00579187;0.0106506;56.3786;319.9351;30.6206;290.0716;0;-2.4E-7;0;Navigation
2.0057912;0.0106531;56.378;319.898;30.6353;251.6441;0;-2.6E-7;0;Navigation
2.00579105;0.0106543;56.3777;319.8813;30.658;199.3897;0;-2.9E-7;0;Navigation
2.00579105;0.0106543;56.3777;319.8813;30.658;199.3897;0;-2.9E-7;0;Navigation
2.00579056;0.010656;56.377;319.8431;30.6857;183.4833;0;-3.5E-7;0;Navigation
2.00579009;0.0106573;56.3764;319.8059;30.7124;147.6952;0;-4.3E-7;0;Navigation
2.00579009;0.0106573;56.3764;319.8059;30.7124;147.6952;0;-4.3E-7;0;Navigation
2.00578976;0.0106584;56.3757;319.7632;30.7428;211.6596;0;-5.2E-7;0;Navigation
2.00578953;0.0106599;56.375;319.7267;30.7511;161.9924;0;-5.9E-7;0;Navigation
2.00578953;0.0106599;56.375;319.7267;30.7511;161.9924;0;-5.9E-7;0;Navigation
2.00578907;0.0106624;56.3743;319.6803;30.7849;293.9438;0;-6.5E-7;0;Navigation
2.00578907;0.0106624;56.3743;319.6803;30.7849;293.9438;0;-6.5E-7;0;Navigation
2.00578907;0.0106624;56.3743;319.6803;30.7849;293.9438;0;-6.5E-7;0;Navigation
2.00578876;0.0106661;56.3736;319.6389;30.7989;337.13;0;-6.6E-7;0;Navigation
2.0057886;0.0106673;56.3734;319.6223;30.8094;281.1075;0;-6.6E-7;0;Navigation
2.00578819;0.0106696;56.3725;319.5702;30.8398;159.3197;0;-6.1E-7;0;Navigation
2.00578779;0.010672;56.3718;319.5239;30.8715;290.3751;0;-5.4E-7;0;Navigation
2.00578749;0.0106727;56.3713;319.4925;30.8916;149.7406;0;-4.8E-7;0;Navigation
2.00578704;0.0106741;56.3706;319.4502;30.915;207.1885;0;-4.1E-7;0;Navigation
2.00578662;0.0106751;56.3701;319.4182;30.937;76.0003;0;-3.7E-7;0;Navigation
2.00578629;0.0106755;56.3697;319.3949;30.949;145.6055;0;-3.4E-7;0;Navigation
2.00578597;0.0106762;56.3694;319.3739;30.9613;171.9408;0;-3.2E-7;0;Navigation
2.00578535;0.0106773;56.3688;319.337;30.9867;131.7095;0;-2.9E-7;0;Navigation
2.00578497;0.010678;56.3685;319.3164;30.999;149.52;0;-2.8E-7;0;Navigation
2.00578461;0.0106787;56.3682;319.2971;31.0113;144.8508;0;-2.8E-7;0;Navigation
2.00578378;0.0106801;56.3676;319.2562;31.0372;178.0486;0;-2.7E-7;0;Navigation
2.00578305;0.0106811;56.3671;319.2224;31.062;80.4852;0;-2.7E-7;0;Navigation
2.00578253;0.0106816;56.3667;319.1988;31.0755;156.1349;0;-2.7E-7;0;Navigation
2.00578211;0.010682;56.3664;319.1803;31.0881;136.4814;0;-2.7E-7;0;Navigation
2.00578156;0.0106827;56.366;319.1561;31.1054;221.8498;0;-2.6E-7;0;Navigation
2.00578156;0.0106827;56.366;319.1561;31.1054;221.8498;0;-2.6E-7;0;Navigation
2.00578065;0.0106835;56.3654;319.1162;31.1307;236.8308;0;-2.5E-7;0;Navigation
2.00578015;0.010684;56.3651;319.0947;31.1465;271.509;0;-2.5E-7;0;Navigation
2.00577944;0.0106842;56.3646;319.0633;31.1648;130.2337;0;-2.3E-7;0;Navigation
2.00577898;0.0106848;56.3643;319.0425;31.1778;153.7127;0;-2.2E-7;0;Navigation
2.00577898;0.0106848;56.3643;319.0425;31.1778;153.7127;0;-2.2E-7;0;Navigation
2.00577812;0.0106858;56.3637;319.0026;31.204;166.1519;0;-2.0E-7;0;Navigation
2.00577753;0.0106867;56.3632;318.9753;31.2271;308.236;0;-1.8E-7;0;Navigation
2.00577732;0.0106869;56.3631;318.9644;31.231;149.0703;0;-1.7E-7;0;Navigation
2.00577676;0.0106878;56.3626;318.9356;31.2495;319.1857;0;-1.6E-7;0;Navigation
2.00577676;0.0106878;56.3626;318.9356;31.2495;319.1857;0;-1.6E-7;0;Navigation
2.00577575;0.0106895;56.3617;318.8801;31.2834;259.6368;0;-1.6E-7;0;Navigation
2.0057752;0.0106902;56.3612;318.8462;31.3015;164.0123;0;-1.8E-7;0;Navigation
2.00577488;0.0106908;56.3608;318.8254;31.3136;186.4283;0;-2.0E-7;0;Navigation
2.00577421;0.0106912;56.3601;318.7784;31.3436;331.274;0;-2.8E-7;0;Navigation
2.00577372;0.0106919;56.3594;318.7394;31.3642;328.1939;0;-3.6E-7;0;Navigation
2.00577339;0.0106923;56.3589;318.71;31.3781;149.7092;0;-4.3E-7;0;Navigation
2.00577309;0.0106927;56.3585;318.6811;31.396;322.2394;0;-5.0E-7;0;Navigation
2.00577263;0.0106935;56.3577;318.6322;31.4194;140.8298;0;-5.9E-7;0;Navigation
2.00577245;0.0106939;56.3574;318.6122;31.4286;148.6393;0;-6.1E-7;0;Navigation
2.00577229;0.0106942;56.3571;318.593;31.4384;141.0522;0;-6.3E-7;0;Navigation
2.00577197;0.010695;56.3565;318.5538;31.4581;143.2854;0;-6.3E-7;0;Navigation
2.00577164;0.0106954;56.3558;318.5145;31.4796;145.7864;0;-6.1E-7;0;Navigation
2.00577164;0.0106954;56.3558;318.5145;31.4796;145.7864;0;-6.1E-7;0;Navigation
2.00577133;0.0106957;56.3552;318.4757;31.5009;140.5307;0;-5.6E-7;0;Navigation
2.00577126;0.010696;56.3551;318.4663;31.5057;314.5927;0;-5.5E-7;0;Navigation
2.00577097;0.0106957;56.3546;318.4361;31.5218;150.029;0;-5.0E-7;0;Navigation
2.00577097;0.0106957;56.3546;318.4361;31.5218;150.029;0;-5.0E-7;0;Navigation
2.00577097;0.0106957;56.3546;318.4361;31.5218;150.029;0;-5.0E-7;0;Navigation
2.00577009;0.010696;56.3534;318.356;31.557;184.9877;0;-3.9E-7;0;Navigation
2.00577009;0.010696;56.3534;318.356;31.557;184.9877;0;-3.9E-7;0;Navigation
2.00576957;0.0106957;56.3528;318.3187;31.5764;151.914;0;-3.5E-7;0;Navigation
2.00576957;0.0106957;56.3528;318.3187;31.5764;151.914;0;-3.5E-7;0;Navigation
2.00576957;0.0106957;56.3528;318.3187;31.5764;151.914;0;-3.5E-7;0;Navigation
2.00576749;0.010696;56.3509;318.2018;31.6339;144.0001;0;-3.1E-7;0;Navigation
2.00576749;0.010696;56.3509;318.2018;31.6339;144.0001;0;-3.1E-7;0;Navigation
2.00576645;0.0106954;56.3502;318.1529;31.6684;325.8059;0;-3.1E-7;0;Navigation
2.00576645;0.0106954;56.3502;318.1529;31.6684;325.8059;0;-3.1E-7;0;Navigation
2.00576492;0.0106942;56.3491;318.0843;31.703;147.8804;0;-3.1E-7;0;Navigation
2.00576492;0.0106942;56.3491;318.0843;31.703;147.8804;0;-3.1E-7;0;Navigation
2.00576426;0.0106943;56.3486;318.0553;31.7207;323.2702;0;-3.1E-7;0;Navigation
2.00576292;0.0106936;56.3477;317.9964;31.7488;327.6954;0;-2.9E-7;0;Navigation
2.00576292;0.0106936;56.3477;317.9964;31.7488;327.6954;0;-2.9E-7;0;Navigation
2.00576292;0.0106936;56.3477;317.9964;31.7488;327.6954;0;-2.9E-7;0;Navigation
2.00576105;0.0106932;56.3463;317.9085;31.7874;147.6489;0;-2.4E-7;0;Navigation
2.00576105;0.0106932;56.3463;317.9085;31.7874;147.6489;0;-2.4E-7;0;Navigation
2.00575983;0.0106934;56.3453;317.8476;31.8166;189.1566;0;-2.2E-7;0;Navigation
2.00575966;0.0106934;56.3452;317.8385;31.8221;355.915;0;-2.2E-7;0;Navigation
2.00575933;0.0106936;56.3449;317.8206;31.8306;327.4746;0;-2.2E-7;0;Navigation
2.00575836;0.0106935;56.344;317.7628;31.8565;312.0215;0;-2.6E-7;0;Navigation
2.00575791;0.0106922;56.3435;317.7326;31.8695;147.4154;0;-3.0E-7;0;Navigation
2.00575733;0.0106919;56.3427;317.6914;31.8866;187.2671;0;-3.9E-7;0;Navigation
2.00575724;0.0106918;56.3427;317.6851;31.8913;304.0665;0;-4.1E-7;0;Navigation
2.00575676;0.0106912;56.342;317.6447;31.9067;327.2464;0;-5.1E-7;0;Navigation
2.00575676;0.0106912;56.342;317.6447;31.9067;327.2464;0;-5.1E-7;0;Navigation
2.00575676;0.0106912;56.342;317.6447;31.9067;327.2464;0;-5.1E-7;0;Navigation
2.00575587;0.0106902;56.3405;317.5568;31.9358;147.2053;0;-6.9E-7;0;Navigation
2.00575569;0.01069;56.3401;317.5359;31.9438;172.3185;0;-7.2E-7;0;Navigation
2.00575569;0.01069;56.3401;317.5359;31.9438;172.3185;0;-7.2E-7;0;Navigation
2.00575515;0.0106896;56.339;317.4689;31.9691;326.9923;0;-7.4E-7;0;Navigation
2.00575468;0.0106888;56.338;317.41;31.9912;331.6533;0;-6.8E-7;0;Navigation
2.00575433;0.0106877;56.3374;317.3711;32.0062;329.9037;0;-6.3E-7;0;Navigation
2.00575433;0.0106877;56.3374;317.3711;32.0062;329.9037;0;-6.3E-7;0;Navigation
2.00575351;0.0106907;56.3362;317.2929;32.0216;330.8438;0;-5.2E-7;0;Navigation
2.00575297;0.0106894;56.3355;317.2537;32.0347;334.198;0;-4.8E-7;0;Navigation
2.00575237;0.0106874;56.3349;317.2161;32.0488;307.0868;0;-4.6E-7;0;Navigation
2.00575217;0.0106867;56.3347;317.2053;32.0517;146.7321;0;-4.6E-7;0;Navigation
2.00575167;0.0106869;56.3342;317.1757;32.0628;332.1238;0;-4.6E-7;0;Navigation
2.00575093;0.010687;56.3335;317.137;32.0753;325.6053;0;-4.6E-7;0;Navigation
2.00575053;0.0106862;56.3332;317.1175;32.084;326.5336;0;-4.6E-7;0;Navigation
2.00574971;0.0106849;56.3325;317.0781;32.0998;332.2997;0;-4.6E-7;0;Navigation
2.00574838;0.0106783;56.3315;317.0188;32.1309;346.3321;0;-4.7E-7;0;Navigation
2.00574838;0.0106783;56.3315;317.0188;32.1309;346.3321;0;-4.7E-7;0;Navigation
2.00574663;0.0106759;56.3302;316.9409;32.1554;341.6584;0;-4.4E-7;0;Navigation
2.00574579;0.0106752;56.3295;316.9024;32.1671;331.9319;0;-4.2E-7;0;Navigation
2.00574493;0.0106738;56.3293;316.8627;32.1818;341.7922;0;-4.0E-7;0;Navigation
2.00574474;0.0106736;56.329;316.8538;32.1809;146.1395;0;-3.9E-7;0;Navigation
2.00574474;0.0106736;56.329;316.8538;32.1809;146.1395;0;-3.9E-7;0;Navigation
2.00574474;0.0106736;56.329;316.8538;32.1809;146.1395;0;-3.9E-7;0;Navigation
2.00574265;0.0106718;56.3271;316.7469;32.2158;318.0561;0;-3.6E-7;0;Navigation
2.00574265;0.0106718;56.3271;316.7469;32.2158;318.0561;0;-3.6E-7;0;Navigation
2.00574199;0.0106711;56.3264;316.7086;32.2271;303.6767;0;-3.8E-7;0;Navigation
2.00574151;0.0106703;56.3259;316.6781;32.2325;145.8825;0;-4.2E-7;0;Navigation
2.00574151;0.0106703;56.3259;316.6781;32.2325;145.8825;0;-4.2E-7;0;Navigation
2.00574031;0.0106679;56.3243;316.5902;32.2561;325.6372;0;-6.1E-7;0;Navigation
2.00574031;0.0106679;56.3243;316.5902;32.2561;325.6372;0;-6.1E-7;0;Navigation
2.00574031;0.0106679;56.3243;316.5902;32.2561;325.6372;0;-6.1E-7;0;Navigation
2.00573987;0.0106667;56.3235;316.5508;32.2627;331.4213;0;-7.1E-7;0;Navigation
2.00573987;0.0106667;56.3235;316.5508;32.2627;331.4213;0;-7.1E-7;0;Navigation
2.00573935;0.0106644;56.3225;316.5023;32.2683;145.6266;0;-8.1E-7;0;Navigation
2.00573935;0.0106644;56.3225;316.5023;32.2683;145.6266;0;-8.1E-7;0;Navigation
2.00573935;0.0106644;56.3225;316.5023;32.2683;145.6266;0;-8.1E-7;0;Navigation
2.0057386;0.0106623;56.321;316.4144;32.2857;325.4059;0;-8.8E-7;0;Navigation
2.0057386;0.0106623;56.321;316.4144;32.2857;325.4059;0;-8.8E-7;0;Navigation
